STARLINK-32518          
1 61967U 24210J   26068.33814843  .00032378  00000+0  11808-2 0  9996
2 61967  43.0026 174.9198 0001572 263.0952  96.9720 15.27585316 74802
FLOCK 4G-24             
1 62637U 25009AE  26068.72509072  .00010513  00000+0  38996-3 0  9991
2 62637  97.4061 151.5140 0001802 280.2808  79.8228 15.27784978 63732
